STARLINK-3616           
1 51782U 22017Q   22062.58334491 -.00868597  00000+0 -51689-2 0  9999
2 51782  53.2174 114.2626 0001090  68.9016  54.5105 15.79537920  1424
STARLINK-3628           
1 51783U 22017R   22062.58334491 -.00868519  00000+0 -51895-2 0  9993
2 51783  53.2174 114.2656 0001107  67.1028  54.8224 15.79448931  1430
STARLINK-3632           
1 51784U 22017S   22062.58334491 -.00868386  00000+0 -51622-2 0  9994
2 51784  53.2174 114.2618 0001169  59.5558  64.2303 15.79559624  1424
STARLINK-3646           
1 51785U 22017T   22062.58334491 -.00868440  00000+0 -51785-2 0  9996
2 51785  53.2174 114.2640 0001146  60.2400  62.4388 15.79492651  1429
STARLINK-3638           
1 51786U 22017U   22062.58334491 -.00868532  00000+0 -51527-2 0  9993
2 51786  53.2174 114.2604 0001113  65.2607  59.2608 15.79604258  1425
STARLINK-3619           
1 51787U 22017V   22062.58334491 -.00868541  00000+0 -51738-2 0  9998
2 51787  53.2174 114.2633 0001113  64.4752  58.5680 15.79515519  1423
STARLINK-3641           
1 51788U 22017W   22062.58334491 -.00868485  00000+0 -51367-2 0  9994
2 51788  53.2174 114.2581 0001147  60.6044  65.0213 15.79670304  1435
STARLINK-3639           
1 51789U 22017X   22062.58334491 -.00868525  00000+0 -51578-2 0  9994
2 51789  53.2174 114.2610 0001127  62.9512  61.1979 15.79582399  1423
STARLINK-3631           
1 51790U 22017Y   22062.58334491 -.00868626  00000+0 -51325-2 0  9998
2 51790  53.2174 114.2574 0001081  73.7984  52.1914 15.79692597  1427
STARLINK-3602           
1 51791U 22017Z   22062.58334491 -.00868647  00000+0 -51481-2 0  9995
2 51791  53.2174 114.2596 0001145  61.7163  63.1713 15.79626576  1422
STARLINK-3626           
1 51792U 22017AA  22062.58334491 -.00868507  00000+0 -51212-2 0  9993
2 51792  53.2174 114.2559 0001148  62.4373  64.2819 15.79736612  1439
STARLINK-3633           
1 51793U 22017AB  22062.58334491 -.00868565  00000+0 -51427-2 0  9996
2 51793  53.2174 114.2588 0001106  65.9574  59.3114 15.79647496  1420
STARLINK-3573           
1 51794U 22017AC  22062.58334491 -.00868762  00000+0 -51125-2 0  9991
2 51794  53.2174 114.2544 0001038  82.2884  45.1473 15.79781593  1432
STARLINK-3586           
1 51795U 22017AD  22062.58334491 -.00868706  00000+0 -51173-2 0  9993
2 51795  53.2174 114.2551 0001078  75.1775  51.8991 15.79759284  1425
STARLINK-3630           
1 51796U 22017AE  22062.58334491 -.00868624  00000+0 -50960-2 0  9996
2 51796  53.2174 114.2522 0001092  71.9239  56.5951 15.79847499  1423
STARLINK-3627           
1 51797U 22017AF  22062.58334491 -.00868633  00000+0 -51274-2 0  9996
2 51797  53.2174 114.2565 0001087  72.5592  53.7995 15.79714351  1421
STARLINK-3634           
1 51798U 22017AG  22062.58334491 -.00868538  00000+0 -50902-2 0  9998
2 51798  53.2174 114.2515 0001132  64.3375  64.5404 15.79869499  1425
STARLINK-3637           
1 51799U 22017AH  22062.58334491 -.00868469  00000+0 -51051-2 0  9998
2 51799  53.2174 114.2536 0001165  59.6714  68.1210 15.79803831  1422
STARLINK-3600           
1 51800U 22017AJ  22062.58334491 -.00868656  00000+0 -50808-2 0  9998
2 51800  53.2174 114.2500 0001085  73.7931  55.8038 15.79913280  1426
STARLINK-3592           
1 51801U 22017AK  22062.58334491 -.00868566  00000+0 -51007-2 0  9991
2 51801  53.2174 114.2529 0001109  68.5916  59.5640 15.79825729  1420
STARLINK-3557           
1 51802U 22017AL  22062.58334491 -.00868770  00000+0 -50715-2 0  9994
2 51802  53.2174 114.2486 0001062  78.1679  52.1537 15.79956379  1435
STARLINK-3544           
1 51803U 22017AM  22062.58334491 -.00868625  00000+0 -50857-2 0  9991
2 51803  53.2174 114.2507 0001107  70.9448  58.2942 15.79891324  1428
STARLINK-3601           
1 51804U 22017AN  22062.58334491 -.00868432  00000+0 -49845-2 0  9993
2 51804  53.2174 114.2552 0001243  52.8888  83.1218 15.80320056  1421
STARLINK-3605           
1 51805U 22017AP  22062.58334491 -.00868535  00000+0 -50749-2 0  9993
2 51805  53.2174 114.2492 0001136  63.6292  66.3310 15.79934695  1429
STARLINK-3581           
1 51806U 22017AQ  22062.58334491 -.00868569  00000+0 -50494-2 0  9998
2 51806  53.2174 114.2457 0001132  64.4483  67.2779 15.80044902  1422
STARLINK-3606           
1 51807U 22017AR  22062.58334491 -.00868600  00000+0 -50651-2 0  9990
2 51807  53.2174 114.2477 0001111  69.1113  61.5602 15.79978642  1421
STARLINK-3609           
1 51808U 22017AS  22062.58334491 -.00868756  00000+0 -50405-2 0  9990
2 51808  53.2174 114.2442 0001062  78.2090  54.2198 15.80088888  1429
STARLINK-3607           
1 51809U 22017AT  22062.58334491 -.00868643  00000+0 -50602-2 0  9995
2 51809  53.2174 114.2470 0001088  72.9572  58.0632 15.80001017  1429
STARLINK-3613           
1 51810U 22017AU  22062.58334491 -.00868323  00000+0 -50273-2 0  9996
2 51810  53.2174 114.2428 0001250  53.0964  80.0366 15.80132057  1428
STARLINK-3569           
1 51811U 22017AV  22062.58334491 -.00868748  00000+0 -50455-2 0  9990
2 51811  53.2174 114.2449 0001061  79.3932  52.6815 15.80067176  1432
STARLINK-3610           
1 51812U 22017AW  22062.58334491 -.00868840  00000+0 -50260-2 0  9998
2 51812  53.2174 114.2421 0001047  85.9274  47.5619 15.80153699  1430
STARLINK-3552           
1 51813U 22017AX  22062.58334491 -.00868841  00000+0 -50360-2 0  9991
2 51813  53.2174 114.2434 0001037  87.7446  45.0353 15.80110767  1432
STARLINK-3599           
1 51814U 22017AY  22062.58334491 -.00868601  00000+0 -50141-2 0  9993
2 51814  53.2174 114.2407 0001111  68.1219  66.0553 15.80197855  1435
STARLINK-3604           
1 51815U 22017AZ  22062.58334491 -.00868535  00000+0 -50186-2 0  9999
2 51815  53.2174 114.2413 0001172  60.0059  73.8220 15.80176097  1424
STARLINK-3603           
1 51816U 22017BA  22062.58334491 -.00868691  00000+0 -50097-2 0  9994
2 51816  53.2174 114.2399 0001074  74.3319  60.1934 15.80219638  1426
STARLINK-3596           
1 51817U 22017BB  22062.58334491 -.00555347  00000+0 -20847-2 0  9996
2 51817  53.2229 114.1297 0007923 275.7098 274.6795 15.88298965  1429
FALCON 9 DEB            
1 51818U 22017BC  22062.17326264  .00138095  00000+0  48323-3 0  9996
2 51818  53.2306 116.2173 0006563 294.0551  65.9788 15.88359278   875
FALCON 9 DEB            
1 51819U 22017BD  22062.17199731  .00147386  00000+0  50509-3 0  9996
2 51819  53.2295 116.2084 0004354 275.4758  84.5772 15.88767576   876
FALCON 9 DEB            
1 51820U 22017BE  22062.16869305  .00153871  19646-4  51643-3 0  9995
2 51820  53.2268 116.1840 0008788 259.6227 100.3810 15.89792225   877
FALCON 9 DEB            
1 51821U 22017BF  22062.16749975  .00152879  19581-4  50443-3 0  9998
2 51821  53.2249 116.1743 0007730 240.1356 119.8904 15.90145955   876
L-SAR 01B               
1 51822U 22018A   22062.53391720 -.01460091  00000+0 -17097+0 0  9998
2 51822  97.8046  71.4168 0001102 128.2574 231.4003 14.88314862   675
CZ-4C R/B               
1 51823U 22018B   22062.57642690  .00006092  00000+0  22603-3 0  9995
2 51823  97.8616  71.7562 0134323  25.6457 335.1333 15.19857363   707
2022-019A               
1 51824U 22019A   22062.61488920  .00003161  00000+0  20565-3 0  9995
2 51824  97.5222 139.3253 0019576 253.7541 106.1528 15.08545884   685
2022-019B               
1 51825U 22019B   22062.48148048  .00002754  00000+0  17862-3 0  9998
2 51825  97.5210 139.1931 0017439 251.5093 108.4222 15.08806500   656
2022-019C               
1 51826U 22019C   22062.48095369  .00003582  00000+0  22994-3 0  9998
2 51826  97.5207 139.1927 0016767 252.7408 107.1958 15.08993891   656
2022-019D               
1 51827U 22019D   22062.48071124  .00002714  00000+0  17490-3 0  9993
2 51827  97.5211 139.1950 0015547 251.3658 108.5890 15.09076360   659
2022-019E               
1 51828U 22019E   22062.48064880  .00002950  00000+0  18955-3 0  9994
2 51828  97.5212 139.1944 0016362 254.1729 105.7696 15.09098075   650
2022-019F               
1 51829U 22019F   22062.48048880  .00004115  00000+0  26245-3 0  9993
2 51829  97.5243 139.1984 0015725 254.3875 105.5607 15.09159380   652
2022-019G               
1 51830U 22019G   22062.48048149  .00004340  00000+0  27647-3 0  9990
2 51830  97.5206 139.1923 0016407 253.3392 106.6024 15.09162147   657
2022-019H               
1 51831U 22019H   22062.48030599  .00003370  00000+0  21529-3 0  9996
2 51831  97.5223 139.1908 0016784 262.1578  97.7727 15.09216520   657
2022-019J               
1 51832U 22019J   22062.48026304  .00003044  00000+0  19475-3 0  9991
2 51832  97.5207 139.1929 0017155 260.8405  99.0871 15.09230281   655
2022-019K               
1 51833U 22019K   22062.47941260  .00003824  00000+0  24179-3 0  9991
2 51833  97.5203 139.1940 0014837 257.2456 102.7105 15.09534213   659
2022-019L               
1 51834U 22019L   22062.47936869  .00003275  00000+0  20755-3 0  9997
2 51834  97.5226 139.2031 0015442 260.5765  99.3704 15.09545301   656
2022-019M               
1 51835U 22019M   22062.47935307  .00003130  00000+0  19853-3 0  9991
2 51835  97.5228 139.1924 0015442 261.0695  98.8779 15.09550425   656
2022-019N               
1 51836U 22019N   22062.47925622  .00004668  00000+0  29375-3 0  9998
2 51836  97.5223 139.1971 0015314 260.9587  98.9876 15.09591180   652
2022-019P               
1 51837U 22019P   22062.47877747  .00004231  00000+0  26545-3 0  9995
2 51837  97.5170 139.1914 0014658 261.4463  98.5093 15.09756162   650
2022-019Q               
1 51838U 22019Q   22062.47862491  .00003178  00000+0  20020-3 0  9997
2 51838  97.5224 139.2005 0014301 260.2938  99.6681 15.09805602   651
2022-019R               
1 51839U 22019R   22062.54488523  .00003065  00000+0  19315-3 0  9996
2 51839  97.5218 139.2596 0014264 259.9053 100.0570 15.09810693   662
2022-019S               
1 51840U 22019S   22062.54481650  .00003204  00000+0  20160-3 0  9997
2 51840  97.5217 139.2598 0014270 257.7621 102.2015 15.09835146   667
